{
  "norad_id": 47831,
  "name": "STARLINK-2420",
  "history": [
    {
      "epoch": "2026-03-28T13:54:47.941056",
      "apogee_km": 548.050340435444,
      "perigee_km": 546.3536323837725,
      "latitude_deg": -50.829560962374686,
      "longitude_deg": 98.75326784001663,
      "semi_major_axis_km": 6925.338986409608,
      "eccentricity": 0.0001225,
      "inclination_deg": 53.0557,
      "raan_deg": 151.8194,
      "arg_perigee_deg": 94.8482,
      "mean_anomaly_deg": 265.2647,
      "mean_motion_rev_day": 15.06403123
    }
  ]
}